NORAD_CAT_ID,OBJECT_NAME,OBJECT_TYPE,EPOCH,MEAN_MOTION,ECCENTRICITY,INCLINATION,RA_OF_ASC_NODE,ARG_OF_PERICENTER,MEAN_ANOMALY,BSTAR,MEAN_MOTION_DOT,MEAN_MOTION_DDOT,TLE_LINE0,TLE_LINE1,TLE_LINE2,SEMIMAJOR_AXIS,PERIOD,APOGEE,PERIGEE,DECAYED
53594.0,STARLINK-4681,PAYLOAD,2024-08-04 18:14:44,15.08840964,0.0001251,53.2177,336.4805,86.5975,273.5161,0.00038264,5.807e-05,0.0,0 STARLINK-4681,1 53594U 22104G   24217.76023315  .00005807  00000-0  38264-3 0  9994,2 53594  53.2177 336.4805 0001251  86.5975 273.5161 15.08840964107076,6917.877,95.437,540.608,538.877,0.0
53594.0,STARLINK-4681,PAYLOAD,2024-08-05 00:36:16,15.08855452,0.0001293,53.2182,335.2937,89.2625,270.8515,0.00052281,8.046e-05,0.0,0 STARLINK-4681,1 53594U 22104G   24218.02518679  .00008046  00000-0  52281-3 0  9999,2 53594  53.2182 335.2937 0001293  89.2625 270.8515 15.08855452107119,6917.833,95.437,540.593,538.804,0.0
53594.0,STARLINK-4681,PAYLOAD,2024-08-05 13:19:21,15.08846228,0.000154,53.2181,332.9154,95.8982,264.2186,0.00013273,1.825e-05,0.0,0 STARLINK-4681,1 53594U 22104G   24218.55510832  .00001825  00000-0  13273-3 0  9996,2 53594  53.2181 332.9154 0001540  95.8982 264.2186 15.08846228107197,6917.861,95.437,540.792,538.661,0.0
53594.0,STARLINK-4681,PAYLOAD,2024-08-05 14:54:44,15.08848726,0.0001497,53.2181,332.6191,98.2634,261.8528,0.00016827,2.392e-05,0.0,0 STARLINK-4681,1 53594U 22104G   24218.62134660  .00002392  00000-0  16827-3 0  9993,2 53594  53.2181 332.6191 0001497  98.2634 261.8528 15.08848726108365,6917.854,95.437,540.754,538.683,0.0
53594.0,STARLINK-4681,PAYLOAD,2024-08-06 00:27:03,15.08840044,0.0001265,53.2169,330.8343,97.3221,262.7915,3.1292e-05,2.1e-06,0.0,0 STARLINK-4681,1 53594U 22104G   24219.01879008  .00000210  00000-0  31292-4 0  9990,2 53594  53.2169 330.8343 0001265  97.3221 262.7915 15.08840044107268,6917.88,95.438,540.62,538.87,0.0
53594.0,STARLINK-4681,PAYLOAD,2024-08-06 11:34:46,15.08829786,0.0002085,53.2192,328.7574,114.8643,245.2567,-0.00024804,-4.233e-05,0.0,0 STARLINK-4681,1 53594U 22104G   24219.48247863 -.00004233  00000-0 -24804-3 0  9990,2 53594  53.2192 328.7574 0002085 114.8643 245.2567 15.08829786107337,6917.912,95.438,541.219,538.334,0.0
53594.0,STARLINK-4681,PAYLOAD,2024-08-06 13:10:09,15.08827625,0.0001666,53.218,328.4493,84.7681,275.3501,-0.00033459,-5.607e-05,0.0,0 STARLINK-4681,1 53594U 22104G   24219.54871967 -.00005607  00000-0 -33459-3 0  9997,2 53594  53.2180 328.4493 0001666  84.7681 275.3501 15.08827625108504,6917.918,95.438,540.936,538.631,0.0
53594.0,STARLINK-4681,PAYLOAD,2024-08-06 16:20:55,15.08843378,0.0001289,53.2178,327.855,97.5119,262.602,-6.6069e-05,-1.339e-05,0.0,0 STARLINK-4681,1 53594U 22104G   24219.68119656 -.00001339  00000-0 -66069-4 0  9994,2 53594  53.2178 327.8550 0001289  97.5119 262.6020 15.08843378108527,6917.87,95.437,540.627,538.843,0.0
53594.0,STARLINK-4681,PAYLOAD,2024-08-07 13:00:55,15.08850195,0.0001499,53.2178,323.9934,93.4665,266.6498,3.6672e-05,2.96e-06,0.0,0 STARLINK-4681,1 53594U 22104G   24220.54231223  .00000296  00000-0  36672-4 0  9992,2 53594  53.2178 323.9934 0001499  93.4665 266.6498 15.08850195108656,6917.849,95.437,540.751,538.677,0.0
53594.0,STARLINK-4681,PAYLOAD,2024-08-08 12:51:42,15.08845766,0.0001527,53.2172,319.5338,95.7553,264.3613,0.00018951,2.73e-05,0.0,0 STARLINK-4681,1 53594U 22104G   24221.53591429  .00002730  00000-0  18951-3 0  9993,2 53594  53.2172 319.5338 0001527  95.7553 264.3613 15.08845766108801,6917.863,95.437,540.784,538.671,0.0
53594.0,STARLINK-4681,PAYLOAD,2024-08-08 14:27:05,15.08849067,0.000157,53.2178,319.2345,106.4924,253.6241,0.00019023,2.742e-05,0.0,0 STARLINK-4681,1 53594U 22104G   24221.60215153  .00002742  00000-0  19023-3 0  9992,2 53594  53.2178 319.2345 0001570 106.4924 253.6241 15.08849067107650,6917.853,95.437,540.804,538.632,0.0
53594.0,STARLINK-4681,PAYLOAD,2024-08-09 12:42:31,15.08815645,0.0001596,53.216,315.0734,81.0773,279.04,-0.00032893,-5.516e-05,0.0,0 STARLINK-4681,1 53594U 22104G   24222.52953111 -.00005516  00000-0 -32893-3 0  9991,2 53594  53.2160 315.0734 0001596  81.0773 279.0400 15.08815645107794,6917.955,95.439,540.924,538.716,0.0
53594.0,STARLINK-4681,PAYLOAD,2024-08-09 15:53:17,15.0881732,0.000156,53.2163,314.4778,84.6314,275.4856,-0.0002911,-4.915e-05,0.0,0 STARLINK-4681,1 53594U 22104G   24222.66201180 -.00004915  00000-0 -29110-3 0  9998,2 53594  53.2163 314.4778 0001560  84.6314 275.4856 15.08817320108977,6917.95,95.439,540.894,538.736,0.0
53594.0,STARLINK-4681,PAYLOAD,2024-08-10 12:33:16,15.08872164,0.0001552,53.2161,310.6074,95.3328,264.7841,0.0004516,6.913e-05,0.0,0 STARLINK-4681,1 53594U 22104G   24223.52310604  .00006913  00000-0  45160-3 0  9997,2 53594  53.2161 310.6074 0001552  95.3328 264.7841 15.08872164107945,6917.782,95.436,540.721,538.573,0.0
53594.0,STARLINK-4681,PAYLOAD,2024-08-11 12:24:05,15.08836385,0.0001786,53.2167,306.1516,93.6373,266.4823,0.00035042,5.293e-05,0.0,0 STARLINK-4681,1 53594U 22104G   24224.51672888  .00005293  00000-0  35042-3 0  9990,2 53594  53.2167 306.1516 0001786  93.6373 266.4823 15.08836385108093,6917.891,95.438,540.992,538.521,0.0
53594.0,STARLINK-4681,PAYLOAD,2024-08-11 15:34:51,15.08846979,0.0001775,53.216,305.5567,91.7742,268.3453,0.00047431,7.27e-05,0.0,0 STARLINK-4681,1 53594U 22104G   24224.64920408  .00007270  00000-0  47431-3 0  9990,2 53594  53.2160 305.5567 0001775  91.7742 268.3453 15.08846979108115,6917.859,95.437,540.952,538.496,0.0
53594.0,STARLINK-4681,PAYLOAD,2024-08-11 21:56:23,15.0885126,0.0001169,53.2165,304.3608,77.4669,282.6454,0.0003545,5.36e-05,0.0,0 STARLINK-4681,1 53594U 22104G   24224.91416191  .00005360  00000-0  35450-3 0  9995,2 53594  53.2165 304.3608 0001169  77.4669 282.6454 15.08851260109311,6917.846,95.437,540.52,538.902,0.0
53594.0,STARLINK-4681,PAYLOAD,2024-08-12 12:14:49,15.08886654,0.0001335,53.2164,301.6952,105.1474,254.9665,0.00070664,0.0001099,0.0,0 STARLINK-4681,1 53594U 22104G   24225.51029930  .00010990  00000-0  70664-3 0  9994,2 53594  53.2164 301.6952 0001335 105.1474 254.9665 15.08886654108242,6917.738,95.435,540.526,538.679,0.0
53594.0,STARLINK-4681,PAYLOAD,2024-08-12 13:50:12,15.08896844,0.0001473,53.2172,301.3907,93.6706,266.4455,0.00086497,0.00013526,0.0,0 STARLINK-4681,1 53594U 22104G   24225.57652978  .00013526  00000-0  86497-3 0  9993,2 53594  53.2172 301.3907 0001473  93.6706 266.4455 15.08896844109417,6917.707,95.434,540.591,538.553,0.0
53594.0,STARLINK-4681,PAYLOAD,2024-08-12 15:25:35,15.08900703,0.0001511,53.2158,301.0913,87.5751,272.5414,0.00091807,0.00014377,0.0,0 STARLINK-4681,1 53594U 22104G   24225.64276621  .00014377  00000-0  91807-3 0  9994,2 53594  53.2158 301.0913 0001511  87.5751 272.5414 15.08900703108265,6917.695,95.434,540.605,538.515,0.0
53594.0,STARLINK-4681,PAYLOAD,2024-08-13 12:05:40,15.08790385,0.0001456,53.216,297.2294,98.6779,261.4378,-0.00099878,-0.00016127,0.0,0 STARLINK-4681,1 53594U 22104G   24226.50393734 -.00016127  00000-0 -99878-3 0  9998,2 53594  53.2160 297.2294 0001456  98.6779 261.4378 15.08790385108390,6918.032,95.441,540.904,538.89,0.0
53594.0,STARLINK-4681,PAYLOAD,2024-08-13 13:41:03,15.08790096,0.0001457,53.216,296.9317,95.0752,265.0407,-0.00095222,-0.0001539,0.0,0 STARLINK-4681,1 53594U 22104G   24226.57017957 -.00015390  00000-0 -95222-3 0  9995,2 53594  53.2160 296.9317 0001457  95.0752 265.0407 15.08790096109567,6918.033,95.441,540.906,538.89,0.0
53594.0,STARLINK-4681,PAYLOAD,2024-08-13 21:37:58,15.08811694,8.96e-05,53.2169,295.4463,156.4187,203.6847,-0.00032315,-5.423e-05,0.0,0 STARLINK-4681,1 53594U 22104G   24226.90137343 -.00005423  00000-0 -32315-3 0  9994,2 53594  53.2169 295.4463 0000896 156.4187 203.6847 15.08811694109612,6917.967,95.439,540.452,539.212,0.0
53594.0,STARLINK-4681,PAYLOAD,2024-08-14 11:56:26,15.08839393,0.0001633,53.2162,292.7687,99.9894,260.1283,0.00029393,4.393e-05,0.0,0 STARLINK-4681,1 53594U 22104G   24227.49753459  .00004393  00000-0  29393-3 0  9996,2 53594  53.2162 292.7687 0001633  99.9894 260.1283 15.08839393108548,6917.882,95.438,540.877,538.618,0.0
53594.0,STARLINK-4681,PAYLOAD,2024-08-14 21:28:45,15.08839501,0.0001561,53.2153,290.9851,106.0913,254.0251,0.00041257,6.284e-05,0.0,0 STARLINK-4681,1 53594U 22104G   24227.89497270  .00006284  00000-0  41257-3 0  9990,2 53594  53.2153 290.9851 0001561 106.0913 254.0251 15.08839501109766,6917.882,95.438,540.827,538.667,0.0
53594.0,STARLINK-4681,PAYLOAD,2024-08-15 10:11:51,15.08844608,0.0001519,53.2148,288.6048,104.9953,255.1207,0.00068943,0.00010703,0.0,0 STARLINK-4681,1 53594U 22104G   24228.42489961  .00010703  00000-0  68943-3 0  9990,2 53594  53.2148 288.6048 0001519 104.9953 255.1207 15.08844608109842,6917.866,95.437,540.782,538.68,0.0
53594.0,STARLINK-4681,PAYLOAD,2024-08-15 21:19:32,15.08846558,0.0001422,53.2133,286.5219,107.2833,252.8315,0.00031232,4.687e-05,0.0,0 STARLINK-4681,1 53594U 22104G   24228.88857517  .00004687  00000-0  31232-3 0  9991,2 53594  53.2133 286.5219 0001422 107.2833 252.8315 15.08846558108758,6917.86,95.437,540.709,538.742,0.0
53594.0,STARLINK-4681,PAYLOAD,2024-08-16 10:02:37,15.08848879,0.0001549,53.2139,284.1427,109.9767,250.1392,-5.102e-05,-1.1e-05,0.0,0 STARLINK-4681,1 53594U 22104G   24229.41849165 -.00001100  00000-0 -51020-4 0  9998,2 53594  53.2139 284.1427 0001549 109.9767 250.1392 15.08848879109995,6917.853,95.437,540.79,538.647,0.0
53594.0,STARLINK-4681,PAYLOAD,2024-08-17 03:31:52,15.08838991,0.0001496,53.2133,280.8709,111.2915,248.8237,-4.0722e-05,-9.36e-06,0.0,0 STARLINK-4681,1 53594U 22104G   24230.14714043 -.00000936  00000-0 -40722-4 0  9999,2 53594  53.2133 280.8709 0001496 111.2915 248.8237 15.08838991108947,6917.883,95.438,540.783,538.714,0.0
53594.0,STARLINK-4681,PAYLOAD,2024-08-17 09:53:25,15.08838304,0.0001531,53.2161,279.6797,117.6717,242.443,-0.0001271,-2.31e-05,0.0,0 STARLINK-4681,1 53594U 22104G   24230.41210295 -.00002310  00000-0 -12710-3 0  9992,2 53594  53.2161 279.6797 0001531 117.6717 242.4430 15.08838304110149,6917.886,95.438,540.81,538.691,0.0
